     2.10           N:  GPS NAV DATA                        RINEX VERSION / TYPE
JPS2RIN V1.2.25     JAVAD GNSS          25-May-2018 12:59   PGM / RUN BY / DATE 
     .6519D-08   .2235D-07  -.5960D-07  -.1192D-06          ION ALPHA
     .8602D+05   .9830D+05  -.6554D+05  -.5243D+06          ION BETA
     .279396772385D-08  .976996261670D-14    61440      979 DELTA-UTC: A0,A1,T,W
    18                                                      LEAP SECONDS
                                                            END OF HEADER       
 4 18  5 25 14  0  0.0  .639525242150D-04  .329691829393D-11  .000000000000D+00
     .490000000000D+02 -.553750000000D+02  .579309844866D-08  .914609422594D+00
    -.268779695034D-05  .986257870682D-02  .474788248539D-05  .515369670486D+04
     .482400000000D+06 -.745058059692D-07  .158696009695D+01  .614672899246D-07
     .978813419736D+00  .299875000000D+03  .927790928913D+00 -.832713257278D-08
    -.456804742037D-09  .100000000000D+01  .200200000000D+04  .000000000000D+00
     .300000000000D+01  .630000000000D+02 -.195577740669D-07  .490000000000D+02
     .482400000000D+06
21 18  5 25 14  0  0.0 -.390421133488D-03  .511590769747D-11  .000000000000D+00
     .170000000000D+02  .301875000000D+02  .488413201513D-08  .200769326067D+01
     .123493373394D-05  .243987240829D-01  .628083944321D-05  .515369765091D+04
     .482400000000D+06  .376254320145D-06 -.267941124343D+01 -.268220901489D-06
     .944040821055D+00  .242000000000D+03 -.155614446931D+01 -.799390440678D-08
     .357514891930D-09  .100000000000D+01  .200200000000D+04  .000000000000D+00
     .200000000000D+01  .000000000000D+00 -.102445483208D-07  .170000000000D+02
     .482400000000D+06
26 18  5 25 14  0  0.0 -.137568451464D-03  .126192389871D-10  .000000000000D+00
     .190000000000D+02 -.552500000000D+02  .502949521295D-08  .152292231363D+01
    -.263005495071D-05  .278742134105D-02  .400654971600D-05  .515365948486D+04
     .482400000000D+06  .726431608200D-07  .154008706793D+01  .298023223877D-07
     .955540097395D+00  .299156250000D+03  .129336751235D+00 -.850213986254D-08
    -.375372778640D-09  .100000000000D+01  .200200000000D+04  .000000000000D+00
     .200000000000D+01  .000000000000D+00  .745058059692D-08  .190000000000D+02
     .482400000000D+06
